start=new Date('2021-09-08T00:00:00.000Z').valueOf();
sats=[{"REF_FRAME":"TEME","TIME_SYSTEM":"UTC","LAUNCH_DATE":"2019-11-11","MEAN_ANOMALY":"258.4730","INCLINATION":"53.0551","ARG_OF_PERICENTER":"101.6428","ECCENTRICITY":"0.00015010","NORAD_CAT_ID":"44748","SEMIMAJOR_AXIS":"6925.376","BSTAR":"-0.00005167900000","MEAN_MOTION_DOT":"-0.00001051","CLASSIFICATION_TYPE":"U","GP_ID":"184281211","PERIAPSIS":"546.201","APOAPSIS":"548.280","CENTER_NAME":"EARTH","RCS_SIZE":"LARGE","DECAY_DATE":null,"OBJECT_ID":"2019-074AM","SITE":"AFETR","OBJECT_TYPE":"PAYLOAD","EPOCH":"2021-09-07T21:00:47.315232","MEAN_MOTION_DDOT":"0.0000000000000","PERIOD":"95.593","COUNTRY_CODE":"US","REV_AT_EPOCH":"10043","MEAN_ELEMENT_THEORY":"SGP4","ELEMENT_SET_NO":"999","EPHEMERIS_TYPE":"0","FILE":"3110443","RA_OF_ASC_NODE":"45.9878","MEAN_MOTION":"15.06391206","TLE_LINE2":"2 44748  53.0551  45.9878 0001501 101.6428 258.4730 15.06391206100438","TLE_LINE1":"1 44748U 19074AM  21250.87554763 -.00001051  00000-0 -51679-4 0  9994","OBJECT_NAME":"STARLINK-1043"},{"TLE_LINE1":"1 44749U 19074AN  21250.62278667  .00182265  00000-0  85000-3 0  9993","OBJECT_NAME":"STARLINK-1044","RA_OF_ASC_NODE":"345.5943","TLE_LINE2":"2 44749  53.0551 345.5943 0008082 278.4213  81.5893 15.82246491101252","MEAN_MOTION":"15.82246491","ELEMENT_SET_NO":"999","FILE":"3110443","EPHEMERIS_TYPE":"0","RCS_SIZE":"LARGE","SITE":"AFETR","OBJECT_TYPE":"PAYLOAD","EPOCH":"2021-09-07T14:56:48.768288","OBJECT_ID":"2019-074AN","DECAY_DATE":null,"MEAN_MOTION_DDOT":"0.0000000000000","PERIOD":"91.010","COUNTRY_CODE":"US","MEAN_ELEMENT_THEORY":"SGP4","REV_AT_EPOCH":"10125","CLASSIFICATION_TYPE":"U","MEAN_MOTION_DOT":"0.00182265","GP_ID":"184280962","PERIAPSIS":"318.674","CENTER_NAME":"EARTH","APOAPSIS":"329.508","ECCENTRICITY":"0.00080820","NORAD_CAT_ID":"44749","SEMIMAJOR_AXIS":"6702.226","BSTAR":"0.00085000000000","INCLINATION":"53.0551","MEAN_ANOMALY":"81.5893","ARG_OF_PERICENTER":"278.4213","REF_FRAME":"TEME","TIME_SYSTEM":"UTC","LAUNCH_DATE":"2019-11-11"},{"COUNTRY_CODE":"US","REV_AT_EPOCH":"10042","MEAN_ELEMENT_THEORY":"SGP4","PERIOD":"95.593","MEAN_MOTION_DDOT":"0.0000000000000","OBJECT_ID":"2019-074AQ","DECAY_DATE":null,"OBJECT_TYPE":"PAYLOAD","SITE":"AFETR","EPOCH":"2021-09-07T19:46:28.671744","RCS_SIZE":"LARGE","EPHEMERIS_TYPE":"0","FILE":"3110443","ELEMENT_SET_NO":"999","MEAN_MOTION":"15.06390684","TLE_LINE2":"2 44751  53.0561  46.2239 0001361 105.9902 254.1237 15.06390684100429","RA_OF_ASC_NODE":"46.2239","OBJECT_NAME":"STARLINK-1046","TLE_LINE1":"1 44751U 19074AQ  21250.82394296 -.00001068  00000-0 -52861-4 0  9998","LAUNCH_DATE":"2019-11-11","TIME_SYSTEM":"UTC","REF_FRAME":"TEME","ARG_OF_PERICENTER":"105.9902","MEAN_ANOMALY":"254.1237","INCLINATION":"53.0561","BSTAR":"-0.00005286100000","SEMIMAJOR_AXIS":"6925.377","NORAD_CAT_ID":"44751","ECCENTRICITY":"0.00013610","APOAPSIS":"548.185","CENTER_NAME":"EARTH","PERIAPSIS":"546.300","GP_ID":"184282213","MEAN_MOTION_DOT":"-0.00001068","CLASSIFICATION_TYPE":"U"},{"TLE_LINE2":"2 44752  53.0548  26.4255 0001327 115.3565 244.7562 15.06399157100694","MEAN_MOTION":"15.06399157","RA_OF_ASC_NODE":"26.4255","OBJECT_NAME":"STARLINK-1047","TLE_LINE1":"1 44752U 19074AR  21250.77786425  .00001055  00000-0  89721-4 0  9991","MEAN_MOTION_DDOT":"0.0000000000000","PERIOD":"95.592","COUNTRY_CODE":"US","REV_AT_EPOCH":"10069","MEAN_ELEMENT_THEORY":"SGP4","RCS_SIZE":"LARGE","EPOCH":"2021-09-07T18:40:07.471200","SITE":"AFETR","OBJECT_TYPE":"PAYLOAD","DECAY_DATE":null,"OBJECT_ID":"2019-074AR","FILE":"3110443","EPHEMERIS_TYPE":"0","ELEMENT_SET_NO":"999","SEMIMAJOR_AXIS":"6925.351","BSTAR":"0.00008972100000","ECCENTRICITY":"0.00013270","NORAD_CAT_ID":"44752","PERIAPSIS":"546.297","CENTER_NAME":"EARTH","APOAPSIS":"548.135","MEAN_MOTION_DOT":"0.00001055","CLASSIFICATION_TYPE":"U","GP_ID":"184281964","TIME_SYSTEM":"UTC","LAUNCH_DATE":"2019-11-11","REF_FRAME":"TEME","INCLINATION":"53.0548","MEAN_ANOMALY":"244.7562","ARG_OF_PERICENTER":"115.3565"},{"MEAN_MOTION_DOT":"-0.00000458","CLASSIFICATION_TYPE":"U","GP_ID":"184280712","PERIAPSIS":"546.314","APOAPSIS":"548.135","CENTER_NAME":"EARTH","ECCENTRICITY":"0.00013150","NORAD_CAT_ID":"44753","SEMIMAJOR_AXIS":"6925.360","BSTAR":"-0.00001187400000","MEAN_ANOMALY":"249.2685","INCLINATION":"53.0561","ARG_OF_PERICENTER":"110.8445","REF_FRAME":"TEME","TIME_SYSTEM":"UTC","LAUNCH_DATE":"2019-11-11","TLE_LINE1":"1 44753U 19074AS  21250.84974643 -.00000458  00000-0 -11874-4 0  9993","OBJECT_NAME":"STARLINK-1048","RA_OF_ASC_NODE":"6.1161","MEAN_MOTION":"15.06396383","TLE_LINE2":"2 44753  53.0561   6.1161 0001315 110.8445 249.2685 15.06396383100981","ELEMENT_SET_NO":"999","EPHEMERIS_TYPE":"0","FILE":"3110443","RCS_SIZE":"LARGE","OBJECT_ID":"2019-074AS","DECAY_DATE":null,"OBJECT_TYPE":"PAYLOAD","SITE":"AFETR","EPOCH":"2021-09-07T20:23:38.091552","PERIOD":"95.592","MEAN_MOTION_DDOT":"0.0000000000000","COUNTRY_CODE":"US","MEAN_ELEMENT_THEORY":"SGP4","REV_AT_EPOCH":"10098"},{"RA_OF_ASC_NODE":"6.0903","TLE_LINE2":"2 44754  53.0562   6.0903 0001275 108.2841 251.8287 15.06396541100985","MEAN_MOTION":"15.06396541","TLE_LINE1":"1 44754U 19074AT  21250.85343066 -.00000282  00000-0 -45294-7 0  9995","OBJECT_NAME":"STARLINK-1049","EPOCH":"2021-09-07T20:28:56.409024","SITE":"AFETR","OBJECT_TYPE":"PAYLOAD","OBJECT_ID":"2019-074AT","DECAY_DATE":null,"RCS_SIZE":"LARGE","REV_AT_EPOCH":"10098","COUNTRY_CODE":"US","MEAN_ELEMENT_THEORY":"SGP4","MEAN_MOTION_DDOT":"0.0000000000000","PERIOD":"95.592","ELEMENT_SET_NO":"999","FILE":"3110443","EPHEMERIS_TYPE":"0","NORAD_CAT_ID":"44754","ECCENTRICITY":"0.00012750","BSTAR":"-0.00000004529400","SEMIMAJOR_AXIS":"6925.359","GP_ID":"184281462","CLASSIFICATION_TYPE":"U","MEAN_MOTION_DOT":"-0.00000282","CENTER_NAME":"EARTH","APOAPSIS":"548.107","PERIAPSIS":"546.341","REF_FRAME":"TEME","LAUNCH_DATE":"2019-11-11","TIME_SYSTEM":"UTC","ARG_OF_PERICENTER":"108.2841","INCLINATION":"53.0562","MEAN_ANOMALY":"251.8287"},{"REF_FRAME":"TEME","LAUNCH_DATE":"2019-11-11","TIME_SYSTEM":"UTC","ARG_OF_PERICENTER":"85.4674","INCLINATION":"53.0557","MEAN_ANOMALY":"274.6461","NORAD_CAT_ID":"44755","ECCENTRICITY":"0.00012750","BSTAR":"-0.00004097500000","SEMIMAJOR_AXIS":"6925.364","GP_ID":"184281714","MEAN_MOTION_DOT":"-0.00000892","CLASSIFICATION_TYPE":"U","APOAPSIS":"548.112","CENTER_NAME":"EARTH","PERIAPSIS":"546.346","EPOCH":"2021-09-07T20:06:20.939904","SITE":"AFETR","OBJECT_TYPE":"PAYLOAD","DECAY_DATE":null,"OBJECT_ID":"2019-074AU","RCS_SIZE":"LARGE","MEAN_ELEMENT_THEORY":"SGP4","COUNTRY_CODE":"US","REV_AT_EPOCH":"10097","MEAN_MOTION_DDOT":"0.0000000000000","PERIOD":"95.592","ELEMENT_SET_NO":"999","FILE":"3110443","EPHEMERIS_TYPE":"0","RA_OF_ASC_NODE":"46.1908","MEAN_MOTION":"15.06394851","TLE_LINE2":"2 44755  53.0557  46.1908 0001275  85.4674 274.6461 15.06394851100978","TLE_LINE1":"1 44755U 19074AU  21250.83774236 -.00000892  00000-0 -40975-4 0  9996","OBJECT_NAME":"STARLINK-1050"},{"EPHEMERIS_TYPE":"0","FILE":"3110443","ELEMENT_SET_NO":"999","COUNTRY_CODE":"US","MEAN_ELEMENT_THEORY":"SGP4","REV_AT_EPOCH":"10160","PERIOD":"91.778","MEAN_MOTION_DDOT":"0.0000000000000","OBJECT_ID":"2019-074AV","DECAY_DATE":null,"SITE":"AFETR","OBJECT_TYPE":"PAYLOAD","EPOCH":"2021-09-07T21:47:55.634784","RCS_SIZE":"LARGE","OBJECT_NAME":"STARLINK-1051","TLE_LINE1":"1 44756U 19074AV  21250.90828281 -.00003227  00000-0 -22441-4 0  9998","MEAN_MOTION":"15.68995995","TLE_LINE2":"2 44756  53.0525 322.1901 0003969   6.4189 353.6877 15.68995995101604","RA_OF_ASC_NODE":"322.1901","ARG_OF_PERICENTER":"6.4189","MEAN_ANOMALY":"353.6877","INCLINATION":"53.0525","LAUNCH_DATE":"2019-11-11","TIME_SYSTEM":"UTC","REF_FRAME":"TEME","APOAPSIS":"364.448","CENTER_NAME":"EARTH","PERIAPSIS":"359.098","GP_ID":"184282464","MEAN_MOTION_DOT":"-0.00003227","CLASSIFICATION_TYPE":"U","BSTAR":"-0.00002244100000","SEMIMAJOR_AXIS":"6739.908","NORAD_CAT_ID":"44756","ECCENTRICITY":"0.00039690"},{"SEMIMAJOR_AXIS":"6925.346","BSTAR":"0.00011722000000","ECCENTRICITY":"0.00014760","NORAD_CAT_ID":"44757","PERIAPSIS":"546.189","APOAPSIS":"548.233","CENTER_NAME":"EARTH","CLASSIFICATION_TYPE":"U","MEAN_MOTION_DOT":"0.00001465","GP_ID":"184281212","TIME_SYSTEM":"UTC","LAUNCH_DATE":"2019-11-11","REF_FRAME":"TEME","MEAN_ANOMALY":"251.2634","INCLINATION":"53.0549","ARG_OF_PERICENTER":"108.8515","TLE_LINE2":"2 44757  53.0549  26.0671 0001476 108.8515 251.2634 15.06400731100701","MEAN_MOTION":"15.06400731","RA_OF_ASC_NODE":"26.0671","OBJECT_NAME":"STARLINK-1052","TLE_LINE1":"1 44757U 19074AW  21250.85526287  .00001465  00000-0  11722-3 0  9993","PERIOD":"95.592","MEAN_MOTION_DDOT":"0.0000000000000","COUNTRY_CODE":"US","MEAN_ELEMENT_THEORY":"SGP4","REV_AT_EPOCH":"10070","RCS_SIZE":"LARGE","DECAY_DATE":null,"OBJECT_ID":"2019-074AW","EPOCH":"2021-09-07T20:31:34.711968","SITE":"AFETR","OBJECT_TYPE":"PAYLOAD","EPHEMERIS_TYPE":"0","FILE":"3110443","ELEMENT_SET_NO":"999"},{"PERIAPSIS":"545.485","CENTER_NAME":"EARTH","APOAPSIS":"548.933","MEAN_MOTION_DOT":"-0.00000515","CLASSIFICATION_TYPE":"U","GP_ID":"184280963","SEMIMAJOR_AXIS":"6925.344","BSTAR":"-0.00001562800000","ECCENTRICITY":"0.00024900","NORAD_CAT_ID":"44758","MEAN_ANOMALY":"256.1261","INCLINATION":"53.0543","ARG_OF_PERICENTER":"104.0005","TIME_SYSTEM":"UTC","LAUNCH_DATE":"2019-11-11","REF_FRAME":"TEME","OBJECT_NAME":"STARLINK-1053","TLE_LINE1":"1 44758U 19074AX  21250.73085790 -.00000515  00000-0 -15628-4 0  9997","TLE_LINE2":"2 44758  53.0543  46.6324 0002490 104.0005 256.1261 15.06401514100416","MEAN_MOTION":"15.06401514","RA_OF_ASC_NODE":"46.6324","EPHEMERIS_TYPE":"0","FILE":"3110443","ELEMENT_SET_NO":"999","PERIOD":"95.592","MEAN_MOTION_DDOT":"0.0000000000000","COUNTRY_CODE":"US","REV_AT_EPOCH":"10041","MEAN_ELEMENT_THEORY":"SGP4","RCS_SIZE":"LARGE","OBJECT_ID":"2019-074AX","DECAY_DATE":null,"SITE":"AFETR","OBJECT_TYPE":"PAYLOAD","EPOCH":"2021-09-07T17:32:26.122560"}];
